{"type": "FeatureCollection", "features": [ {"type": "Feature", "properties": {"norad_id": 43565, "name": "GSAT0222 (GALILEO 26)", "group": "gnss", "lat": -31.66806232539541, "lon": -36.622126067999254, "alt_km": 23216.314210239907, "timestamp": "2025-12-13T20:38:51.246839+00:00", "meta": {"OBJECT_NAME": "GSAT0222 (GALILEO 26)", "OBJECT_ID": "2018-060B", "EPOCH": "2025-12-11T13:50:46.646592", "MEAN_MOTION": 1.70475594, "ECCENTRICITY": 0.00061469, "INCLINATION": 57.2316, "RA_OF_ASC_NODE": 346.8519, "ARG_OF_PERICENTER": 263.5274, "MEAN_ANOMALY": 96.42, "EPHEMERIS_TYPE": 0, "CLASSIFICATION_TYPE": "U", "NORAD_CAT_ID": 43565, "ELEMENT_SET_NO": 999, "REV_AT_EPOCH": 4601, "BSTAR": 0, "MEAN_MOTION_DOT": -8.7e-07, "MEAN_MOTION_DDOT": 0}, "tle": {"line1": "1 43565U 18060B   25345.57692878 -.00000087  00000+0  00000+0 0  9993", "line2": "2 43565  57.2316 346.8519 0006146 263.5274  96.4200  1.70475594 46015"}}, "geometry": {"type": "Point", "coordinates": [-36.622126067999254, -31.66806232539541]}}, {"type": "Feature", "properties": {"norad_id": 43566, "name": "GSAT0219 (GALILEO 23)", "group": "gnss", "lat": -4.670464085562171, "lon": 169.80809997239484, "alt_km": 23226.370919115863, "timestamp": "2025-12-13T20:38:51.246850+00:00", "meta": {"OBJECT_NAME": "GSAT0219 (GALILEO 23)", "OBJECT_ID": "2018-060C", "EPOCH": "2025-12-12T23:18:35.949024", "MEAN_MOTION": 1.70475808, "ECCENTRICITY": 0.00058128, "INCLINATION": 57.2304, "RA_OF_ASC_NODE": 346.8158, "ARG_OF_PERICENTER": 287.2893, "MEAN_ANOMALY": 72.6656, "EPHEMERIS_TYPE": 0, "CLASSIFICATION_TYPE": "U", "NORAD_CAT_ID": 43566, "ELEMENT_SET_NO": 999, "REV_AT_EPOCH": 4601, "BSTAR": 0, "MEAN_MOTION_DOT": -8.6e-07, "MEAN_MOTION_DDOT": 0}, "tle": {"line1": "1 43566U 18060C   25346.97124941 -.00000086  00000+0  00000+0 0  9999", "line2": "2 43566  57.2304 346.8158 0005812 287.2893  72.6656  1.70475808 46010"}}, "geometry": {"type": "Point", "coordinates": [169.80809997239484, -4.670464085562171]}}, {"type": "Feature", "properties": {"norad_id": 43567, "name": "GSAT0220 (GALILEO 24)", "group": "gnss", "lat": 40.1226751712126, "lon": 19.671633548018992, "alt_km": 23227.86451257013, "timestamp": "2025-12-13T20:38:51.246861+00:00", "meta": {"OBJECT_NAME": "GSAT0220 (GALILEO 24)", "OBJECT_ID": "2018-060D", "EPOCH": "2025-12-10T20:18:00.212256", "MEAN_MOTION": 1.70475727, "ECCENTRICITY": 0.0006125, "INCLINATION": 57.2305, "RA_OF_ASC_NODE": 346.8727, "ARG_OF_PERICENTER": 283.9956, "MEAN_ANOMALY": 75.9532, "EPHEMERIS_TYPE": 0, "CLASSIFICATION_TYPE": "U", "NORAD_CAT_ID": 43567, "ELEMENT_SET_NO": 999, "REV_AT_EPOCH": 4596, "BSTAR": 0, "MEAN_MOTION_DOT": -8.7e-07, "MEAN_MOTION_DDOT": 0}, "tle": {"line1": "1 43567U 18060D   25344.84583579 -.00000087  00000+0  00000+0 0  9991", "line2": "2 43567  57.2305 346.8727 0006125 283.9956  75.9532  1.70475727 45967"}}, "geometry": {"type": "Point", "coordinates": [19.671633548018992, 40.1226751712126]}}, {"type": "Feature", "properties": {"norad_id": 43581, "name": "BEIDOU-3 M5 (C23)", "group": "gnss", "lat": 1.5717140011268327, "lon": -170.2495235953385, "alt_km": 21522.523108952842, "timestamp": "2025-12-13T20:38:51.246874+00:00", "meta": {"OBJECT_NAME": "BEIDOU-3 M5 (C23)", "OBJECT_ID": "2018-062A", "EPOCH": "2025-12-12T05:55:01.607232", "MEAN_MOTION": 1.86228672, "ECCENTRICITY": 0.00021016, "INCLINATION": 54.0891, "RA_OF_ASC_NODE": 188.6597, "ARG_OF_PERICENTER": 354.1416, "MEAN_ANOMALY": 5.9159, "EPHEMERIS_TYPE": 0, "CLASSIFICATION_TYPE": "U", "NORAD_CAT_ID": 43581, "ELEMENT_SET_NO": 999, "REV_AT_EPOCH": 5015, "BSTAR": 0, "MEAN_MOTION_DOT": 7.9e-07, "MEAN_MOTION_DDOT": 0}, "tle": {"line1": "1 43581U 18062A   25346.24654638  .00000079  00000+0  00000+0 0  9990", "line2": "2 43581  54.0891 188.6597 0002101 354.1416   5.9159  1.86228672 50154"}}, "geometry": {"type": "Point", "coordinates": [-170.2495235953385, 1.5717140011268327]}}, {"type": "Feature", "properties": {"norad_id": 43582, "name": "BEIDOU-3 M6 (C24)", "group": "gnss", "lat": 53.88434762209051, "lon": -74.76808147185045, "alt_km": 21506.680213873347, "timestamp": "2025-12-13T20:38:51.246886+00:00", "meta": {"OBJECT_NAME": "BEIDOU-3 M6 (C24)", "OBJECT_ID": "2018-062B", "EPOCH": "2025-12-12T15:31:04.646784", "MEAN_MOTION": 1.86229838, "ECCENTRICITY": 0.00078852, "INCLINATION": 54.0888, "RA_OF_ASC_NODE": 188.6352, "ARG_OF_PERICENTER": 47.3846, "MEAN_ANOMALY": 312.743, "EPHEMERIS_TYPE": 0, "CLASSIFICATION_TYPE": "U", "NORAD_CAT_ID": 43582, "ELEMENT_SET_NO": 999, "REV_AT_EPOCH": 5016, "BSTAR": 0, "MEAN_MOTION_DOT": 8.5e-07, "MEAN_MOTION_DDOT": 0}, "tle": {"line1": "1 43582U 18062B   25346.64658156  .00000085  00000+0  00000+0 0  9991", "line2": "2 43582  54.0888 188.6352 0007885  47.3846 312.7430  1.86229838 50169"}}, "geometry": {"type": "Point", "coordinates": [-74.76808147185045, 53.88434762209051]}}, {"type": "Feature", "properties": {"norad_id": 43602, "name": "BEIDOU-3 M12 (C26)", "group": "gnss", "lat": 34.53060458897564, "lon": -22.46825695052603, "alt_km": 21526.14111656232, "timestamp": "2025-12-13T20:38:51.246899+00:00", "meta": {"OBJECT_NAME": "BEIDOU-3 M12 (C26)", "OBJECT_ID": "2018-067A", "EPOCH": "2025-12-11T12:15:06.004224", "MEAN_MOTION": 1.86227612, "ECCENTRICITY": 0.00091491, "INCLINATION": 54.1831, "RA_OF_ASC_NODE": 187.4051, "ARG_OF_PERICENTER": 41.0073, "MEAN_ANOMALY": 319.1184, "EPHEMERIS_TYPE": 0, "CLASSIFICATION_TYPE": "U", "NORAD_CAT_ID": 43602, "ELEMENT_SET_NO": 999, "REV_AT_EPOCH": 4962, "BSTAR": 0, "MEAN_MOTION_DOT": 7.1e-07, "MEAN_MOTION_DDOT": 0}, "tle": {"line1": "1 43602U 18067A   25345.51048616  .00000071  00000+0  00000+0 0  9993", "line2": "2 43602  54.1831 187.4051 0009149  41.0073 319.1184  1.86227612 49626"}}, "geometry": {"type": "Point", "coordinates": [-22.46825695052603, 34.53060458897564]}}, {"type": "Feature", "properties": {"norad_id": 43603, "name": "BEIDOU-3 M11 (C25)", "group": "gnss", "lat": 35.178080809390984, "lon": -142.09867484777146, "alt_km": 21508.704125072876, "timestamp": "2025-12-13T20:38:51.246911+00:00", "meta": {"OBJECT_NAME": "BEIDOU-3 M11 (C25)", "OBJECT_ID": "2018-067B", "EPOCH": "2025-12-12T04:22:00.818688", "MEAN_MOTION": 1.86227161, "ECCENTRICITY": 0.00055795, "INCLINATION": 54.1804, "RA_OF_ASC_NODE": 187.3462, "ARG_OF_PERICENTER": 36.7716, "MEAN_ANOMALY": 323.3248, "EPHEMERIS_TYPE": 0, "CLASSIFICATION_TYPE": "U", "NORAD_CAT_ID": 43603, "ELEMENT_SET_NO": 999, "REV_AT_EPOCH": 4966, "BSTAR": 0, "MEAN_MOTION_DOT": 8e-07, "MEAN_MOTION_DDOT": 0}, "tle": {"line1": "1 43603U 18067B   25346.18195392  .00000080  00000+0  00000+0 0  9992", "line2": "2 43603  54.1804 187.3462 0005579  36.7716 323.3248  1.86227161 49661"}}, "geometry": {"type": "Point", "coordinates": [-142.09867484777146, 35.178080809390984]}}, {"type": "Feature", "properties": {"norad_id": 43622, "name": "BEIDOU-3 M13 (C32)", "group": "gnss", "lat": 53.422125391088386, "lon": 131.99688048688444, "alt_km": 21533.53700517656, "timestamp": "2025-12-13T20:38:51.246923+00:00", "meta": {"OBJECT_NAME": "BEIDOU-3 M13 (C32)", "OBJECT_ID": "2018-072A", "EPOCH": "2025-12-12T16:12:36.163584", "MEAN_MOTION": 1.8623072, "ECCENTRICITY": 0.0005872, "INCLINATION": 56.4592, "RA_OF_ASC_NODE": 68.8222, "ARG_OF_PERICENTER": 298.9421, "MEAN_ANOMALY": 61.0187, "EPHEMERIS_TYPE": 0, "CLASSIFICATION_TYPE": "U", "NORAD_CAT_ID": 43622, "ELEMENT_SET_NO": 999, "REV_AT_EPOCH": 4918, "BSTAR": 0, "MEAN_MOTION_DOT": -7.4e-07, "MEAN_MOTION_DDOT": 0}, "tle": {"line1": "1 43622U 18072A   25346.67541856 -.00000074  00000+0  00000+0 0  9997", "line2": "2 43622  56.4592  68.8222 0005872 298.9421  61.0187  1.86230720 49189"}}, "geometry": {"type": "Point", "coordinates": [131.99688048688444, 53.422125391088386]}}, {"type": "Feature", "properties": {"norad_id": 43623, "name": "BEIDOU-3 M14 (C33)", "group": "gnss", "lat": 12.761748231771978, "lon": -119.8440198161792, "alt_km": 21535.716250928705, "timestamp": "2025-12-13T20:38:51.246937+00:00", "meta": {"OBJECT_NAME": "BEIDOU-3 M14 (C33)", "OBJECT_ID": "2018-072B", "EPOCH": "2025-12-12T00:05:39.634080", "MEAN_MOTION": 1.86230719, "ECCENTRICITY": 0.00032787, "INCLINATION": 56.4604, "RA_OF_ASC_NODE": 68.8385, "ARG_OF_PERICENTER": 334.6213, "MEAN_ANOMALY": 25.3832, "EPHEMERIS_TYPE": 0, "CLASSIFICATION_TYPE": "U", "NORAD_CAT_ID": 43623, "ELEMENT_SET_NO": 999, "REV_AT_EPOCH": 4916, "BSTAR": 0, "MEAN_MOTION_DOT": -6.8e-07, "MEAN_MOTION_DDOT": 0}, "tle": {"line1": "1 43623U 18072B   25346.00393095 -.00000068  00000+0  00000+0 0  9998", "line2": "2 43623  56.4604  68.8385 0003278 334.6213  25.3832  1.86230719 49165"}}, "geometry": {"type": "Point", "coordinates": [-119.8440198161792, 12.761748231771978]}}, {"type": "Feature", "properties": {"norad_id": 43647, "name": "BEIDOU-3 M16 (C35)", "group": "gnss", "lat": 44.02845165711271, "lon": -9.463015692711972, "alt_km": 21507.161620404597, "timestamp": "2025-12-13T20:38:51.246948+00:00", "meta": {"OBJECT_NAME": "BEIDOU-3 M16 (C35)", "OBJECT_ID": "2018-078A", "EPOCH": "2025-12-12T16:46:08.548320", "MEAN_MOTION": 1.8623232, "ECCENTRICITY": 0.00071943, "INCLINATION": 54.262, "RA_OF_ASC_NODE": 306.5225, "ARG_OF_PERICENTER": 19.2835, "MEAN_ANOMALY": 340.7342, "EPHEMERIS_TYPE": 0, "CLASSIFICATION_TYPE": "U", "NORAD_CAT_ID": 43647, "ELEMENT_SET_NO": 999, "REV_AT_EPOCH": 4868, "BSTAR": 0, "MEAN_MOTION_DOT": -9.5e-07, "MEAN_MOTION_DDOT": 0}, "tle": {"line1": "1 43647U 18078A   25346.69871005 -.00000095  00000+0  00000+0 0  9997", "line2": "2 43647  54.2620 306.5225 0007194  19.2835 340.7342  1.86232320 48683"}}, "geometry": {"type": "Point", "coordinates": [-9.463015692711972, 44.02845165711271]}}]}